{
  "type": "FeatureCollection",
  "features": [
    {
      "type": "Feature",
      "properties": {
        "norad_id": 19071,
        "name": "OSCAR 32",
        "group": "nnss",
        "lat": -72.27421307161681,
        "lon": 17.215173307923134,
        "alt_km": 1165.0682254955,
        "timestamp": "2025-12-02T10:50:47.542543+00:00",
        "meta_object_name": "OSCAR 32",
        "meta_object_id": "1988-033B",
        "meta_epoch": "2025-12-02T04:19:01.015104",
        "meta_mean_motion": 13.27951754,
        "meta_eccentricity": 0.0187479,
        "meta_inclination": 90.3228,
        "meta_ra_of_asc_node": 16.1961,
        "meta_arg_of_pericenter": 196.1591,
        "meta_mean_anomaly": 229.564,
        "meta_ephemeris_type": 0,
        "meta_classification_type": "U",
        "meta_norad_cat_id": 19071,
        "meta_element_set_no": 999,
        "meta_rev_at_epoch": 82125,
        "meta_bstar": 0.00016987,
        "meta_mean_motion_dot": 9.2e-07,
        "meta_mean_motion_ddot": 0,
        "tle_line1": "1 19071U 88033B   25336.17987286  .00000092  00000+0  16987-3 0  9991",
        "tle_line2": "2 19071  90.3228  16.1961 0187479 196.1591 229.5640 13.27951754821256"
      },
      "geometry": {
        "type": "Point",
        "coordinates": [
          17.215173307923134,
          -72.27421307161681
        ]
      }
    },
    {
      "type": "Feature",
      "properties": {
        "norad_id": 19223,
        "name": "NOVA 2",
        "group": "nnss",
        "lat": -52.011748892410495,
        "lon": 78.26883193519164,
        "alt_km": 1183.1540255637246,
        "timestamp": "2025-12-02T10:50:47.542553+00:00",
        "meta_object_name": "NOVA 2",
        "meta_object_id": "1988-052A",
        "meta_epoch": "2025-12-02T01:05:17.185056",
        "meta_mean_motion": 13.22933826,
        "meta_eccentricity": 0.0031437,
        "meta_inclination": 89.9873,
        "meta_ra_of_asc_node": 78.2856,
        "meta_arg_of_pericenter": 45.6873,
        "meta_mean_anomaly": 127.3912,
        "meta_ephemeris_type": 0,
        "meta_classification_type": "U",
        "meta_norad_cat_id": 19223,
        "meta_element_set_no": 999,
        "meta_rev_at_epoch": 80806,
        "meta_bstar": 0.00013196,
        "meta_mean_motion_dot": 6.4e-07,
        "meta_mean_motion_ddot": 0,
        "tle_line1": "1 19223U 88052A   25336.04533779  .00000064  00000+0  13196-3 0  9999",
        "tle_line2": "2 19223  89.9873  78.2856 0031437  45.6873 127.3912 13.22933826808066"
      },
      "geometry": {
        "type": "Point",
        "coordinates": [
          78.26883193519164,
          -52.011748892410495
        ]
      }
    },
    {
      "type": "Feature",
      "properties": {
        "norad_id": 19419,
        "name": "OSCAR 25",
        "group": "nnss",
        "lat": 17.44244134716523,
        "lon": 20.19867583419323,
        "alt_km": 1113.7371179680222,
        "timestamp": "2025-12-02T10:50:47.542563+00:00",
        "meta_object_name": "OSCAR 25",
        "meta_object_id": "1988-074A",
        "meta_epoch": "2025-12-02T03:54:17.559072",
        "meta_mean_motion": 13.42620129,
        "meta_eccentricity": 0.0094205,
        "meta_inclination": 90.0358,
        "meta_ra_of_asc_node": 20.2089,
        "meta_arg_of_pericenter": 276.5776,
        "meta_mean_anomaly": 142.7359,
        "meta_ephemeris_type": 0,
        "meta_classification_type": "U",
        "meta_norad_cat_id": 19419,
        "meta_element_set_no": 999,
        "meta_rev_at_epoch": 82498,
        "meta_bstar": 0.00021074,
        "meta_mean_motion_dot": 1.31e-06,
        "meta_mean_motion_ddot": 0,
        "tle_line1": "1 19419U 88074A   25336.16270323  .00000131  00000+0  21074-3 0  9995",
        "tle_line2": "2 19419  90.0358  20.2089 0094205 276.5776 142.7359 13.42620129824984"
      },
      "geometry": {
        "type": "Point",
        "coordinates": [
          20.19867583419323,
          17.44244134716523
        ]
      }
    },
    {
      "type": "Feature",
      "properties": {
        "norad_id": 19420,
        "name": "OSCAR 31",
        "group": "nnss",
        "lat": -81.55120932808313,
        "lon": -159.693653270116,
        "alt_km": 1038.7349418160893,
        "timestamp": "2025-12-02T10:50:47.542573+00:00",
        "meta_object_name": "OSCAR 31",
        "meta_object_id": "1988-074B",
        "meta_epoch": "2025-12-02T04:29:46.787712",
        "meta_mean_motion": 13.42581908,
        "meta_eccentricity": 0.0092425,
        "meta_inclination": 90.0374,
        "meta_ra_of_asc_node": 20.5573,
        "meta_arg_of_pericenter": 270.6149,
        "meta_mean_anomaly": 152.9738,
        "meta_ephemeris_type": 0,
        "meta_classification_type": "U",
        "meta_norad_cat_id": 19420,
        "meta_element_set_no": 999,
        "meta_rev_at_epoch": 82509,
        "meta_bstar": 0.00017991,
        "meta_mean_motion_dot": 1.13e-06,
        "meta_mean_motion_ddot": 0,
        "tle_line1": "1 19420U 88074B   25336.18734708  .00000113  00000+0  17991-3 0  9994",
        "tle_line2": "2 19420  90.0374  20.5573 0092425 270.6149 152.9738 13.42581908825094"
      },
      "geometry": {
        "type": "Point",
        "coordinates": [
          -159.693653270116,
          -81.55120932808313
        ]
      }
    }
  ]
}